[{"OBJECT_NAME":"STARLINK-31265","OBJECT_ID":"2024-041A","EPOCH":"2026-03-09T23:10:40.556352","MEAN_MOTION":15.2757399,"ECCENTRICITY":1.185e-5,"INCLINATION":42.9999,"RA_OF_ASC_NODE":309.1532,"ARG_OF_PERICENTER":236.065,"MEAN_ANOMALY":124.019,"EPHEMERIS_TYPE":0,"CLASSIFICATION_TYPE":"U","NORAD_CAT_ID":59074,"ELEMENT_SET_NO":999,"REV_AT_EPOCH":11431,"BSTAR":0.00011886748,"MEAN_MOTION_DOT":3.01e-5,"MEAN_MOTION_DDOT":0},{"OBJECT_NAME":"OBJECT H","OBJECT_ID":"2022-023H","EPOCH":"2026-03-09T22:57:41.313888","MEAN_MOTION":15.21889274,"ECCENTRICITY":0.00933376,"INCLINATION":63.6345,"RA_OF_ASC_NODE":356.5929,"ARG_OF_PERICENTER":305.1945,"MEAN_ANOMALY":54.0457,"EPHEMERIS_TYPE":0,"CLASSIFICATION_TYPE":"U","NORAD_CAT_ID":51953,"ELEMENT_SET_NO":999,"REV_AT_EPOCH":22114,"BSTAR":0.00043867493,"MEAN_MOTION_DOT":0.00011084,"MEAN_MOTION_DDOT":0}]
